OBJECT_NAME,OBJECT_ID,EPOCH,MEAN_MOTION,ECCENTRICITY,INCLINATION,RA_OF_ASC_NODE,ARG_OF_PERICENTER,MEAN_ANOMALY,EPHEMERIS_TYPE,CLASSIFICATION_TYPE,NORAD_CAT_ID,ELEMENT_SET_NO,REV_AT_EPOCH,BSTAR,MEAN_MOTION_DOT,MEAN_MOTION_DDOT
DUCHIFAT-1,2014-033M,2026-07-16T16:46:11.491104,15.71313651,.00027866,98.0414,261.1627,236.8489,123.2505,0,U,40021,999,66037,.77546207E-3,.99153E-3,0
NANOSATC-BR1,2014-033Q,2026-07-17T01:20:30.963552,15.32365382,.0005253,98.0704,233.1102,91.9307,268.2534,0,U,40024,999,65855,.32893482E-3,.10197E-3,0
QB50P1,2014-033R,2026-07-17T00:01:44.720256,15.18681576,.00104593,98.0964,211.2472,119.5295,240.6982,0,U,40025,999,65755,.20646572E-3,.4208E-4,0
DTUSAT-2,2014-033W,2026-07-16T22:55:56.464896,15.15364990,.00094083,98.0876,197.5823,126.6687,233.5410,0,U,40030,999,65719,.21093085E-3,.3907E-4,0
QB50P2,2014-033Y,2026-07-17T06:38:53.656224,15.15522510,.00092668,98.0764,197.0406,78.0159,282.2110,0,U,40032,999,65722,.21521134E-3,.4006E-4,0
PERSEUS-M1,2014-033AF,2026-07-17T06:36:18.492192,14.95720181,.00110452,97.9655,142.9045,189.2551,170.8468,0,U,40039,999,65513,.83148487E-4,.866E-5,0
POLYITAN-1,2014-033AJ,2026-07-16T23:56:10.969152,15.34258948,.00077238,98.0931,227.1009,59.0704,301.1295,0,U,40042,999,65816,.30638196E-3,.10081E-3,0
TIGRISAT,2014-033AK,2026-07-16T23:04:26.380416,14.85252335,.00484935,97.7867,347.2982,338.4903,21.4274,0,U,40043,999,65004,.8456304E-4,.685E-5,0
CANX-4,2014-034C,2026-07-17T03:27:04.820256,14.81313013,.00113734,98.3080,74.5514,275.8115,84.1800,0,U,40055,999,64896,.56173782E-4,.381E-5,0
CANX-5,2014-034D,2026-07-17T03:24:19.210464,14.81330365,.00113751,98.3083,74.5947,276.0834,83.9082,0,U,40056,999,63977,.56081724E-4,.381E-5,0
GONETS-M 10,2014-036C,2026-07-17T06:07:50.396160,12.42946431,.00229207,82.5126,288.9999,78.1837,282.1812,0,U,40063,999,54598,.64120761E-3,.99E-6,0
METEOR-M 2,2014-037A,2026-07-17T06:32:19.025952,14.21470458,.00050502,98.5132,172.9488,320.3260,39.7548,0,U,40069,999,62359,.1721006E-3,.334E-5,0
DX1,2014-037C,2026-07-17T05:52:27.797952,14.90063750,.00072713,98.3881,161.7752,163.8484,196.2965,0,U,40071,999,65058,.7637029E-4,.675E-5,0
UKUBE-1,2014-037F,2026-07-17T05:51:34.648128,15.13967263,.00032177,98.4243,204.6851,83.9152,276.2443,0,U,40074,999,65310,.24447754E-3,.4355E-4,0
GAOFEN-2,2014-049A,2026-07-17T05:50:50.667072,14.80927325,.00083598,98.0095,262.4201,128.8700,231.3260,0,U,40118,999,64368,-.29201891E-4,-.279E-5,0
BRITE-PL2 (HEWELIUSZ),2014-049B,2026-07-16T21:31:13.773216,14.94689258,.00141718,97.9120,310.1310,16.6624,343.5058,0,U,40119,999,64588,.50494606E-4,.489E-5,0
CBERS 4,2014-079A,2026-07-17T06:54:23.563008,14.35516158,.00007008,98.3514,254.1726,56.3784,303.7469,0,U,40336,999,60827,.17790876E-4,.9E-7,0
SMAP,2015-003A,2026-07-17T05:36:23.079744,14.63390045,.00016138,98.1285,204.9036,94.1618,265.9769,0,U,40376,999,61201,.40492668E-4,.162E-5,0
GONETS-M 11,2015-020A,2026-07-17T06:36:37.940832,12.42878509,.00153445,82.4863,12.2383,298.4628,61.4906,0,U,40552,999,51247,-.40506624E-3,-.46E-6,0
GONETS-M 12,2015-020B,2026-07-17T05:57:59.736384,12.42891818,.00142332,82.4896,13.3869,282.3181,77.6305,0,U,40553,999,51246,-.70234352E-3,-.88E-6,0
GONETS-M 13,2015-020C,2026-07-17T07:16:26.836896,12.42872213,.00128084,82.4859,11.9592,266.0253,93.9362,0,U,40554,999,51244,.52082595E-3,.82E-6,0
DMC3-FM1,2015-032A,2026-07-17T07:25:50.244384,14.85768385,.00046933,97.6421,62.2975,329.6308,30.4636,0,U,40715,999,59438,.49130719E-4,.376E-5,0
DMC3-FM2,2015-032B,2026-07-17T06:20:25.883808,14.85777373,.00053358,97.6475,63.8484,335.5785,24.5177,0,U,40716,999,59437,.93727271E-4,.763E-5,0
DMC3-FM3,2015-032C,2026-07-17T06:54:20.159712,14.85762553,.00046176,97.6527,65.6430,337.7325,22.3690,0,U,40717,999,59438,-.37207355E-4,-.375E-5,0
CARBONITE 1 (CBNT-1),2015-032D,2026-07-17T07:54:57.286944,14.83672913,.00140444,97.6518,15.1369,189.6024,170.4924,0,U,40718,999,59381,.14682635E-3,.1163E-4,0
LILACSAT-2,2015-049K,2026-07-17T06:06:15.712992,15.52405502,.00085068,97.4621,236.2537,135.4502,224.7436,0,U,40908,999,60041,.1721448E-3,.10421E-3,0
