DUCHIFAT-1              
1 40021U 14033M   26197.69874411  .00099153  00000+0  77546-3 0  9991
2 40021  98.0414 261.1627 0002786 236.8489 123.2505 15.71313651660376
NANOSATC-BR1            
1 40024U 14033Q   26198.05591393  .00010197  00000+0  32893-3 0  9997
2 40024  98.0704 233.1102 0005253  91.9307 268.2534 15.32365382658553
QB50P1                  
1 40025U 14033R   26198.00121204  .00004208  00000+0  20647-3 0  9993
2 40025  98.0964 211.2472 0010459 119.5295 240.6982 15.18681576657556
DTUSAT-2                
1 40030U 14033W   26197.95551464  .00003907  00000+0  21093-3 0  9998
2 40030  98.0876 197.5823 0009408 126.6687 233.5410 15.15364990657198
QB50P2                  
1 40032U 14033Y   26198.27700991  .00004006  00000+0  21521-3 0  9994
2 40032  98.0764 197.0406 0009266  78.0159 282.2110 15.15522510657220
PERSEUS-M1              
1 40039U 14033AF  26198.27521403  .00000866  00000+0  83148-4 0  9994
2 40039  97.9655 142.9045 0011045 189.2551 170.8468 14.95720181655138
POLYITAN-1              
1 40042U 14033AJ  26197.99734918  .00010081  00000+0  30638-3 0  9998
2 40042  98.0931 227.1009 0007723  59.0704 301.1295 15.34258948658163
TIGRISAT                
1 40043U 14033AK  26197.96141644  .00000685  00000+0  84563-4 0  9990
2 40043  97.7867 347.2982 0048493 338.4903  21.4274 14.85252335650043
CANX-4                  
1 40055U 14034C   26198.14380579  .00000381  00000+0  56174-4 0  9997
2 40055  98.3080  74.5514 0011373 275.8115  84.1800 14.81313013648963
CANX-5                  
1 40056U 14034D   26198.14188901  .00000381  00000+0  56082-4 0  9991
2 40056  98.3083  74.5947 0011375 276.0834  83.9082 14.81330365639777
GONETS-M 10             
1 40063U 14036C   26198.25544440  .00000099  00000+0  64121-3 0  9995
2 40063  82.5126 288.9999 0022920  78.1837 282.1812 12.42946431545983
METEOR-M 2              
1 40069U 14037A   26198.27244243  .00000334  00000+0  17210-3 0  9991
2 40069  98.5132 172.9488 0005050 320.3260  39.7548 14.21470458623591
DX1                     
1 40071U 14037C   26198.24476618  .00000675  00000+0  76370-4 0  9995
2 40071  98.3881 161.7752 0007271 163.8484 196.2965 14.90063750650588
UKUBE-1                 
1 40074U 14037F   26198.24415102  .00004355  00000+0  24448-3 0  9996
2 40074  98.4243 204.6851 0003217  83.9152 276.2443 15.13967263653100
GAOFEN-2                
1 40118U 14049A   26198.24364198 -.00000279  00000+0 -29202-4 0  9993
2 40118  98.0095 262.4201 0008359 128.8700 231.3260 14.80927325643680
BRITE-PL2 (HEWELIUSZ)   
1 40119U 14049B   26197.89668719  .00000489  00000+0  50495-4 0  9999
2 40119  97.9120 310.1310 0014171  16.6624 343.5058 14.94689258645888
CBERS 4                 
1 40336U 14079A   26198.28777272  .00000009  00000+0  17791-4 0  9992
2 40336  98.3514 254.1726 0000700  56.3784 303.7469 14.35516158608279
SMAP                    
1 40376U 15003A   26198.23360046  .00000162  00000+0  40493-4 0  9991
2 40376  98.1285 204.9036 0001613  94.1618 265.9769 14.63390045612018
GONETS-M 11             
1 40552U 15020A   26198.27543913 -.00000046  00000+0 -40507-3 0  9994
2 40552  82.4863  12.2383 0015344 298.4628  61.4906 12.42878509512475
GONETS-M 12             
1 40553U 15020B   26198.24860806 -.00000088  00000+0 -70234-3 0  9991
2 40553  82.4896  13.3869 0014233 282.3181  77.6305 12.42891818512464
GONETS-M 13             
1 40554U 15020C   26198.30308839  .00000082  00000+0  52083-3 0  9996
2 40554  82.4859  11.9592 0012808 266.0253  93.9362 12.42872213512446
DMC3-FM1                
1 40715U 15032A   26198.30960931  .00000376  00000+0  49131-4 0  9992
2 40715  97.6421  62.2975 0004693 329.6308  30.4636 14.85768385594388
DMC3-FM2                
1 40716U 15032B   26198.26418847  .00000763  00000+0  93727-4 0  9992
2 40716  97.6475  63.8484 0005335 335.5785  24.5177 14.85777373594379
DMC3-FM3                
1 40717U 15032C   26198.28773333 -.00000375  00000+0 -37207-4 0  9991
2 40717  97.6527  65.6430 0004617 337.7325  22.3690 14.85762553594386
CARBONITE 1 (CBNT-1)    
1 40718U 15032D   26198.32982971  .00001163  00000+0  14683-3 0  9993
2 40718  97.6518  15.1369 0014044 189.6024 170.4924 14.83672913593813
LILACSAT-2              
1 40908U 15049K   26198.25434853  .00010421  00000+0  17214-3 0  9995
2 40908  97.4621 236.2537 0008506 135.4502 224.7436 15.52405502600417
